IRIDIUM 171             
1 43929U 19002H   25215.29595608  .00000239  00000+0  78364-4 0  9993
2 43929  86.4004 126.7600 0002213  92.4441 267.7008 14.34220049343396
IRIDIUM 170             
1 43930U 19002J   25215.28020733  .00000844  00000+0  12998-3 0  9998
2 43930  86.6118 126.5115 0002290  86.4581 273.6898 14.72249518352485
IRIDIUM 167             
1 43931U 19002K   25215.28961745  .00000139  00000+0  42675-4 0  9999
2 43931  86.3995 126.5113 0002041  92.5411 267.6019 14.34217650343396
IRIDIUM 181             
1 56726U 23068S   25215.43917963  .00000236  00000+0  63982-4 0  9994
2 56726  86.4540 189.5087 0002732  97.2724 262.8787 14.43308172116605
IRIDIUM 177             
1 56727U 23068T   25215.25701729  .00001247  00000+0  16060-3 0  9993
2 56727  86.1983 119.7960 0002279  93.1933 266.9548 14.80230304119337
IRIDIUM 174             
1 56728U 23068U   25215.26784308  .00000961  00000+0  14849-3 0  9994
2 56728  86.6128 126.6316 0002434  72.1282 288.0201 14.72257745119243
IRIDIUM 178             
1 56729U 23068V   25215.38132013  .00001150  00000+0  14785-3 0  9998
2 56729  86.6601 158.1483 0002462  84.2521 275.8981 14.80238403119356
IRIDIUM 179             
1 56730U 23068W   25215.37594919  .00001282  00000+0  16529-3 0  9990
2 56730  86.6845 166.1608 0002744  83.6731 276.4803 14.80236829119355
